start=new Date('2023-06-28T00:00:00.000Z').valueOf();
sats=[{"MEAN_MOTION":"15.06416357","ECCENTRICITY":"0.00013100","TLE_LINE2":"2 46356  53.0531 125.4121 0001310  82.6435 277.4703 15.06416357155797","GP_ID":"234575834","NORAD_CAT_ID":"46356","SEMIMAJOR_AXIS":"6925.298","APOAPSIS":"548.071","MEAN_MOTION_DOT":"0.00011651","LAUNCH_DATE":"2020-09-03","ARG_OF_PERICENTER":"82.6435","OBJECT_NAME":"STARLINK-1665","MEAN_ELEMENT_THEORY":"SGP4","OBJECT_TYPE":"PAYLOAD","BSTAR":"0.00079944000000","MEAN_ANOMALY":"277.4703","RCS_SIZE":"LARGE","TLE_LINE1":"1 46356U 20062AH  23178.13747488  .00011651  00000-0  79944-3 0  9997","TIME_SYSTEM":"UTC","COUNTRY_CODE":"US","REF_FRAME":"TEME","FILE":"3943754","PERIAPSIS":"546.256","INCLINATION":"53.0531","CLASSIFICATION_TYPE":"U","RA_OF_ASC_NODE":"125.4121","DECAY_DATE":null,"ELEMENT_SET_NO":"999","PERIOD":"95.591","REV_AT_EPOCH":"15579","EPHEMERIS_TYPE":"0","SITE":"AFETR","OBJECT_ID":"2020-062AH","MEAN_MOTION_DDOT":"0.0000000000000","EPOCH":"2023-06-27T03:17:57.829632","CENTER_NAME":"EARTH"},{"ELEMENT_SET_NO":"999","PERIOD":"95.590","MEAN_MOTION_DDOT":"0.0000000000000","EPOCH":"2023-06-27T04:52:12.642240","CENTER_NAME":"EARTH","REV_AT_EPOCH":"15608","EPHEMERIS_TYPE":"0","SITE":"AFETR","OBJECT_ID":"2020-062AJ","REF_FRAME":"TEME","FILE":"3944020","RA_OF_ASC_NODE":"105.1326","DECAY_DATE":null,"PERIAPSIS":"546.287","INCLINATION":"53.0535","CLASSIFICATION_TYPE":"U","OBJECT_NAME":"STARLINK-1666","ARG_OF_PERICENTER":"74.1284","MEAN_ELEMENT_THEORY":"SGP4","LAUNCH_DATE":"2020-09-03","TLE_LINE1":"1 46357U 20062AJ  23178.20292410  .00023301  00000-0  15766-2 0  9992","TIME_SYSTEM":"UTC","COUNTRY_CODE":"US","OBJECT_TYPE":"PAYLOAD","BSTAR":"0.00157660000000","RCS_SIZE":"LARGE","MEAN_ANOMALY":"285.9836","TLE_LINE2":"2 46357  53.0535 105.1326 0001189  74.1284 285.9836 15.06433704156085","GP_ID":"234582429","NORAD_CAT_ID":"46357","SEMIMAJOR_AXIS":"6925.245","MEAN_MOTION":"15.06433704","ECCENTRICITY":"0.00011890","MEAN_MOTION_DOT":"0.00023301","APOAPSIS":"547.934"},{"ECCENTRICITY":"0.00015920","MEAN_MOTION":"15.06392235","SEMIMAJOR_AXIS":"6925.372","GP_ID":"234591139","NORAD_CAT_ID":"46358","TLE_LINE2":"2 46358  53.0517 123.4265 0001592 113.0520 247.0637 15.06392235155861","APOAPSIS":"548.340","MEAN_MOTION_DOT":"0.00001864","LAUNCH_DATE":"2020-09-03","MEAN_ELEMENT_THEORY":"SGP4","OBJECT_NAME":"STARLINK-1690","ARG_OF_PERICENTER":"113.0520","RCS_SIZE":"LARGE","MEAN_ANOMALY":"247.0637","BSTAR":"0.00014405000000","OBJECT_TYPE":"PAYLOAD","COUNTRY_CODE":"US","TIME_SYSTEM":"UTC","TLE_LINE1":"1 46358U 20062AK  23178.58074962  .00001864  00000-0  14405-3 0  9994","FILE":"3944354","REF_FRAME":"TEME","CLASSIFICATION_TYPE":"U","PERIAPSIS":"546.135","INCLINATION":"53.0517","DECAY_DATE":null,"RA_OF_ASC_NODE":"123.4265","PERIOD":"95.593","ELEMENT_SET_NO":"999","OBJECT_ID":"2020-062AK","SITE":"AFETR","EPHEMERIS_TYPE":"0","REV_AT_EPOCH":"15586","CENTER_NAME":"EARTH","EPOCH":"2023-06-27T13:56:16.767168","MEAN_MOTION_DDOT":"0.0000000000000"},{"MEAN_MOTION":"15.06372240","ECCENTRICITY":"0.00010770","TLE_LINE2":"2 46359  53.0537  80.6060 0001077 107.2755 252.8352 15.06372240156418","GP_ID":"234576515","NORAD_CAT_ID":"46359","SEMIMAJOR_AXIS":"6925.434","APOAPSIS":"548.045","MEAN_MOTION_DOT":"0.00021749","LAUNCH_DATE":"2020-09-03","ARG_OF_PERICENTER":"107.2755","OBJECT_NAME":"STARLINK-1707","MEAN_ELEMENT_THEORY":"SGP4","OBJECT_TYPE":"PAYLOAD","BSTAR":"0.00147560000000","MEAN_ANOMALY":"252.8352","RCS_SIZE":"LARGE","TLE_LINE1":"1 46359U 20062AL  23178.09650248  .00021749  00000-0  14756-2 0  9990","TIME_SYSTEM":"UTC","COUNTRY_CODE":"US","REF_FRAME":"TEME","FILE":"3943770","PERIAPSIS":"546.553","INCLINATION":"53.0537","CLASSIFICATION_TYPE":"U","RA_OF_ASC_NODE":"80.6060","DECAY_DATE":null,"PERIOD":"95.594","ELEMENT_SET_NO":"999","REV_AT_EPOCH":"15641","EPHEMERIS_TYPE":"0","SITE":"AFETR","OBJECT_ID":"2020-062AL","MEAN_MOTION_DDOT":"0.0000000000000","EPOCH":"2023-06-27T02:18:57.814272","CENTER_NAME":"EARTH"},{"MEAN_ELEMENT_THEORY":"SGP4","ARG_OF_PERICENTER":"116.5195","OBJECT_NAME":"STARLINK-1713","LAUNCH_DATE":"2020-09-03","COUNTRY_CODE":"US","TIME_SYSTEM":"UTC","TLE_LINE1":"1 46360U 20062AM  23178.05227357  .00021566  00000-0  14635-2 0  9992","MEAN_ANOMALY":"243.5913","RCS_SIZE":"LARGE","BSTAR":"0.00146350000000","OBJECT_TYPE":"PAYLOAD","SEMIMAJOR_AXIS":"6925.445","NORAD_CAT_ID":"46360","GP_ID":"234577191","TLE_LINE2":"2 46360  53.0531  80.8037 0001163 116.5195 243.5913 15.06368588156417","ECCENTRICITY":"0.00011630","MEAN_MOTION":"15.06368588","MEAN_MOTION_DOT":"0.00021566","APOAPSIS":"548.115","ELEMENT_SET_NO":"999","PERIOD":"95.594","CENTER_NAME":"EARTH","EPOCH":"2023-06-27T01:15:16.436448","MEAN_MOTION_DDOT":"0.0000000000000","OBJECT_ID":"2020-062AM","SITE":"AFETR","EPHEMERIS_TYPE":"0","REV_AT_EPOCH":"15641","FILE":"3943781","REF_FRAME":"TEME","DECAY_DATE":null,"RA_OF_ASC_NODE":"80.8037","CLASSIFICATION_TYPE":"U","INCLINATION":"53.0531","PERIAPSIS":"546.504"},{"APOAPSIS":"548.132","MEAN_MOTION_DOT":"0.00021374","ECCENTRICITY":"0.00012510","MEAN_MOTION":"15.06383016","SEMIMAJOR_AXIS":"6925.401","GP_ID":"234576730","NORAD_CAT_ID":"46361","TLE_LINE2":"2 46361  53.0541  80.6374 0001251 119.7667 240.3447 15.06383016156407","RCS_SIZE":"LARGE","MEAN_ANOMALY":"240.3447","BSTAR":"0.00145010000000","OBJECT_TYPE":"PAYLOAD","COUNTRY_CODE":"US","TIME_SYSTEM":"UTC","TLE_LINE1":"1 46361U 20062AN  23178.08818705  .00021374  00000-0  14501-2 0  9998","LAUNCH_DATE":"2020-09-03","MEAN_ELEMENT_THEORY":"SGP4","ARG_OF_PERICENTER":"119.7667","OBJECT_NAME":"STARLINK-1722","CLASSIFICATION_TYPE":"U","INCLINATION":"53.0541","PERIAPSIS":"546.399","DECAY_DATE":null,"RA_OF_ASC_NODE":"80.6374","FILE":"3943782","REF_FRAME":"TEME","OBJECT_ID":"2020-062AN","SITE":"AFETR","EPHEMERIS_TYPE":"0","REV_AT_EPOCH":"15640","CENTER_NAME":"EARTH","EPOCH":"2023-06-27T02:06:59.361120","MEAN_MOTION_DDOT":"0.0000000000000","PERIOD":"95.593","ELEMENT_SET_NO":"999"},{"TLE_LINE1":"1 46362U 20062AP  23178.19971136  .00023712  00000-0  16064-2 0  9993","TIME_SYSTEM":"UTC","COUNTRY_CODE":"US","OBJECT_TYPE":"PAYLOAD","BSTAR":"0.00160640000000","RCS_SIZE":"LARGE","MEAN_ANOMALY":"254.6956","ARG_OF_PERICENTER":"105.4159","OBJECT_NAME":"STARLINK-1726","MEAN_ELEMENT_THEORY":"SGP4","LAUNCH_DATE":"2020-09-03","MEAN_MOTION_DOT":"0.00023712","APOAPSIS":"548.072","TLE_LINE2":"2 46362  53.0534  80.1403 0001137 105.4159 254.6956 15.06376757156439","GP_ID":"234582865","NORAD_CAT_ID":"46362","SEMIMAJOR_AXIS":"6925.420","MEAN_MOTION":"15.06376757","ECCENTRICITY":"0.00011370","MEAN_MOTION_DDOT":"0.0000000000000","EPOCH":"2023-06-27T04:47:35.061504","CENTER_NAME":"EARTH","REV_AT_EPOCH":"15643","EPHEMERIS_TYPE":"0","SITE":"AFETR","OBJECT_ID":"2020-062AP","ELEMENT_SET_NO":"999","PERIOD":"95.594","RA_OF_ASC_NODE":"80.1403","DECAY_DATE":null,"PERIAPSIS":"546.497","INCLINATION":"53.0534","CLASSIFICATION_TYPE":"U","REF_FRAME":"TEME","FILE":"3944032"},{"RA_OF_ASC_NODE":"78.9814","DECAY_DATE":null,"INCLINATION":"53.0531","PERIAPSIS":"546.398","CLASSIFICATION_TYPE":"U","REF_FRAME":"TEME","FILE":"3944036","MEAN_MOTION_DDOT":"0.0000000000000","EPOCH":"2023-06-27T10:57:46.669824","CENTER_NAME":"EARTH","REV_AT_EPOCH":"15644","EPHEMERIS_TYPE":"0","SITE":"AFETR","OBJECT_ID":"2020-062AQ","ELEMENT_SET_NO":"999","PERIOD":"95.593","MEAN_MOTION_DOT":"0.00026188","APOAPSIS":"548.158","TLE_LINE2":"2 46363  53.0531  78.9814 0001271  84.1603 275.9531 15.06378889156448","NORAD_CAT_ID":"46363","GP_ID":"234582870","SEMIMAJOR_AXIS":"6925.413","MEAN_MOTION":"15.06378889","ECCENTRICITY":"0.00012710","TLE_LINE1":"1 46363U 20062AQ  23178.45679016  .00026188  00000-0  17715-2 0  9999","TIME_SYSTEM":"UTC","COUNTRY_CODE":"US","OBJECT_TYPE":"PAYLOAD","BSTAR":"0.00177150000000","RCS_SIZE":"LARGE","MEAN_ANOMALY":"275.9531","OBJECT_NAME":"STARLINK-1739","ARG_OF_PERICENTER":"84.1603","MEAN_ELEMENT_THEORY":"SGP4","LAUNCH_DATE":"2020-09-03"},{"MEAN_MOTION_DOT":"0.00008258","APOAPSIS":"547.959","TLE_LINE2":"2 46364  53.0536  61.2731 0001041 107.8640 252.2462 15.06392090156683","GP_ID":"234576773","NORAD_CAT_ID":"46364","SEMIMAJOR_AXIS":"6925.373","MEAN_MOTION":"15.06392090","ECCENTRICITY":"0.00010410","TLE_LINE1":"1 46364U 20062AR  23178.06155816  .00008258  00000-0  57277-3 0  9990","TIME_SYSTEM":"UTC","COUNTRY_CODE":"US","OBJECT_TYPE":"PAYLOAD","BSTAR":"0.00057277000000","RCS_SIZE":"LARGE","MEAN_ANOMALY":"252.2462","ARG_OF_PERICENTER":"107.8640","OBJECT_NAME":"STARLINK-1763","MEAN_ELEMENT_THEORY":"SGP4","LAUNCH_DATE":"2020-09-03","RA_OF_ASC_NODE":"61.2731","DECAY_DATE":null,"PERIAPSIS":"546.517","INCLINATION":"53.0536","CLASSIFICATION_TYPE":"U","REF_FRAME":"TEME","FILE":"3943797","MEAN_MOTION_DDOT":"0.0000000000000","EPOCH":"2023-06-27T01:28:38.625024","CENTER_NAME":"EARTH","REV_AT_EPOCH":"15668","EPHEMERIS_TYPE":"0","SITE":"AFETR","OBJECT_ID":"2020-062AR","ELEMENT_SET_NO":"999","PERIOD":"95.593"},{"ELEMENT_SET_NO":"999","PERIOD":"95.594","MEAN_MOTION_DDOT":"0.0000000000000","EPOCH":"2023-06-27T02:29:34.672128","CENTER_NAME":"EARTH","REV_AT_EPOCH":"15639","EPHEMERIS_TYPE":"0","SITE":"AFETR","OBJECT_ID":"2020-062AS","REF_FRAME":"TEME","FILE":"3943725","RA_OF_ASC_NODE":"80.5726","DECAY_DATE":null,"INCLINATION":"53.0533","PERIAPSIS":"546.508","CLASSIFICATION_TYPE":"U","OBJECT_NAME":"STARLINK-1550","ARG_OF_PERICENTER":"81.8372","MEAN_ELEMENT_THEORY":"SGP4","LAUNCH_DATE":"2020-09-03","TLE_LINE1":"1 46365U 20062AS  23178.10387352  .00022774  00000-0  15443-2 0  9995","TIME_SYSTEM":"UTC","COUNTRY_CODE":"US","OBJECT_TYPE":"PAYLOAD","BSTAR":"0.00154430000000","MEAN_ANOMALY":"278.2750","RCS_SIZE":"LARGE","TLE_LINE2":"2 46365  53.0533  80.5726 0001174  81.8372 278.2750 15.06364846156393","NORAD_CAT_ID":"46365","GP_ID":"234575273","SEMIMAJOR_AXIS":"6925.456","MEAN_MOTION":"15.06364846","ECCENTRICITY":"0.00011740","MEAN_MOTION_DOT":"0.00022774","APOAPSIS":"548.134"}];
